[{"OBJECT_NAME":"ORBCOMM FM04","OBJECT_ID":"1998-007C","EPOCH":"2026-03-09T14:44:15.821664","MEAN_MOTION":14.35529153,"ECCENTRICITY":0.0038795,"INCLINATION":107.9614,"RA_OF_ASC_NODE":324.5497,"ARG_OF_PERICENTER":142.9338,"MEAN_ANOMALY":217.4493,"EPHEMERIS_TYPE":0,"CLASSIFICATION_TYPE":"U","NORAD_CAT_ID":25159,"ELEMENT_SET_NO":999,"REV_AT_EPOCH":46230,"BSTAR":0.0004125,"MEAN_MOTION_DOT":1.067e-5,"MEAN_MOTION_DDOT":0},{"OBJECT_NAME":"CZ-4B DEB","OBJECT_ID":"1999-057ND","EPOCH":"2026-03-08T09:10:28.129728","MEAN_MOTION":14.44541964,"ECCENTRICITY":0.00807635,"INCLINATION":98.6095,"RA_OF_ASC_NODE":120.1434,"ARG_OF_PERICENTER":207.277,"MEAN_ANOMALY":215.8394,"EPHEMERIS_TYPE":0,"CLASSIFICATION_TYPE":"U","NORAD_CAT_ID":28073,"ELEMENT_SET_NO":999,"REV_AT_EPOCH":21652,"BSTAR":0.0001954645,"MEAN_MOTION_DOT":6.54e-6,"MEAN_MOTION_DDOT":0}]
